SL-14 R/B               
1 21423U 91042B   25354.81805492  .00000303  00000+0  35300-4 0  9994
2 21423  82.4934 294.1480 0018102 136.3036 223.9614 14.81745421841395
ERS-1                   
1 21574U 91050A   25354.80062632  .00000201  00000+0  79030-4 0  9995
2 21574  98.7900   6.0569 0032998  76.8177 283.6689 14.39370271804389
ARIANE 40 R/B           
1 21610U 91050F   25354.41491311  .00000245  00000+0  86064-4 0  9996
2 21610  98.2155  44.5682 0002315 334.1817  25.9257 14.42819141807560
INTERCOSMOS 25          
1 21819U 91086A   25354.47864415  .00001851  00000+0  36870-3 0  9994
2 21819  82.6068 357.8944 1486373 287.7119  56.7490 12.11755921487093
SL-8 R/B                
1 21876U 92008B   25354.47199961  .00000103  00000+0  90727-4 0  9990
2 21876  82.9268 326.6947 0034701 358.3962 121.5692 13.75960661698529
SL-8 R/B                
1 21938U 92020B   25354.35592433  .00000127  00000+0  11539-3 0  9990
2 21938  82.9297 212.6620 0029396 156.9867  16.3731 13.75528920690224
USA 81                  
1 21949U 92023A   25354.57887513  .00000143  00000+0  45566-4 0  9991
2 21949  85.0079 177.0549 0001152  76.9071 283.2250 14.32329508 83468
COSMOS 2221             
1 22236U 92080A   25354.10960167  .00001385  00000+0  12157-3 0  9998
2 22236  82.5038 355.2708 0016275  98.9666 261.3399 14.95785829768897
SL-16 R/B               
1 22285U 92093B   25354.80057921  .00000100  00000+0  75800-4 0  9997
2 22285  71.0203 169.8743 0002363  44.3745 315.7567 14.15434573701990
COSMOS 2228             
1 22286U 92094A   25354.84641567  .00001589  00000+0  13632-3 0  9994
2 22286  82.5182 312.7774 0017116 202.2947 157.7533 14.96762716764266
