CCSDS_OMM_VERS = 2.0
CREATION_DATE  = 
ORIGINATOR     = 

OBJECT_NAME    = SL-14 R/B
OBJECT_ID      = 1991-042B
CENTER_NAME    = EARTH
REF_FRAME      = TEME
TIME_SYSTEM    = UTC
MEAN_ELEMENT_THEORY = SGP/SGP4

EPOCH          = 2025-12-20T19:37:59.945088
MEAN_MOTION    = 14.81745421
ECCENTRICITY   = .0018102
INCLINATION    = 82.4934
RA_OF_ASC_NODE = 294.1480
ARG_OF_PERICENTER = 136.3036
MEAN_ANOMALY   = 223.9614

EPHEMERIS_TYPE = 0
CLASSIFICATION_TYPE = U
NORAD_CAT_ID   = 21423
ELEMENT_SET_NO = 999
REV_AT_EPOCH   = 84139
BSTAR          = .353E-4
MEAN_MOTION_DOT = .303E-5
MEAN_MOTION_DDOT = 0

CCSDS_OMM_VERS = 2.0
CREATION_DATE  = 
ORIGINATOR     = 

OBJECT_NAME    = ERS-1
OBJECT_ID      = 1991-050A
CENTER_NAME    = EARTH
REF_FRAME      = TEME
TIME_SYSTEM    = UTC
MEAN_ELEMENT_THEORY = SGP/SGP4

EPOCH          = 2025-12-20T19:12:54.114048
MEAN_MOTION    = 14.39370271
ECCENTRICITY   = .0032998
INCLINATION    = 98.7900
RA_OF_ASC_NODE = 6.0569
ARG_OF_PERICENTER = 76.8177
MEAN_ANOMALY   = 283.6689

EPHEMERIS_TYPE = 0
CLASSIFICATION_TYPE = U
NORAD_CAT_ID   = 21574
ELEMENT_SET_NO = 999
REV_AT_EPOCH   = 80438
BSTAR          = .7903E-4
MEAN_MOTION_DOT = .201E-5
MEAN_MOTION_DDOT = 0

CCSDS_OMM_VERS = 2.0
CREATION_DATE  = 
ORIGINATOR     = 

OBJECT_NAME    = ARIANE 40 R/B
OBJECT_ID      = 1991-050F
CENTER_NAME    = EARTH
REF_FRAME      = TEME
TIME_SYSTEM    = UTC
MEAN_ELEMENT_THEORY = SGP/SGP4

EPOCH          = 2025-12-20T09:57:28.492704
MEAN_MOTION    = 14.42819141
ECCENTRICITY   = .00023159
INCLINATION    = 98.2155
RA_OF_ASC_NODE = 44.5682
ARG_OF_PERICENTER = 334.1817
MEAN_ANOMALY   = 25.9257

EPHEMERIS_TYPE = 0
CLASSIFICATION_TYPE = U
NORAD_CAT_ID   = 21610
ELEMENT_SET_NO = 999
REV_AT_EPOCH   = 80756
BSTAR          = .86063997E-4
MEAN_MOTION_DOT = .245E-5
MEAN_MOTION_DDOT = 0

CCSDS_OMM_VERS = 2.0
CREATION_DATE  = 
ORIGINATOR     = 

OBJECT_NAME    = INTERCOSMOS 25
OBJECT_ID      = 1991-086A
CENTER_NAME    = EARTH
REF_FRAME      = TEME
TIME_SYSTEM    = UTC
MEAN_ELEMENT_THEORY = SGP/SGP4

EPOCH          = 2025-12-20T11:29:14.854560
MEAN_MOTION    = 12.11755921
ECCENTRICITY   = .14863739
INCLINATION    = 82.6068
RA_OF_ASC_NODE = 357.8944
ARG_OF_PERICENTER = 287.7119
MEAN_ANOMALY   = 56.7490

EPHEMERIS_TYPE = 0
CLASSIFICATION_TYPE = U
NORAD_CAT_ID   = 21819
ELEMENT_SET_NO = 999
REV_AT_EPOCH   = 48709
BSTAR          = .36869723E-3
MEAN_MOTION_DOT = .1851E-4
MEAN_MOTION_DDOT = 0

CCSDS_OMM_VERS = 2.0
CREATION_DATE  = 
ORIGINATOR     = 

OBJECT_NAME    = SL-8 R/B
OBJECT_ID      = 1992-008B
CENTER_NAME    = EARTH
REF_FRAME      = TEME
TIME_SYSTEM    = UTC
MEAN_ELEMENT_THEORY = SGP/SGP4

EPOCH          = 2025-12-20T11:19:40.766304
MEAN_MOTION    = 13.75960661
ECCENTRICITY   = .00347012
INCLINATION    = 82.9268
RA_OF_ASC_NODE = 326.6947
ARG_OF_PERICENTER = 358.3962
MEAN_ANOMALY   = 121.5692

EPHEMERIS_TYPE = 0
CLASSIFICATION_TYPE = U
NORAD_CAT_ID   = 21876
ELEMENT_SET_NO = 999
REV_AT_EPOCH   = 69852
BSTAR          = .90727227E-4
MEAN_MOTION_DOT = .103E-5
MEAN_MOTION_DDOT = 0

CCSDS_OMM_VERS = 2.0
CREATION_DATE  = 
ORIGINATOR     = 

OBJECT_NAME    = SL-8 R/B
OBJECT_ID      = 1992-020B
CENTER_NAME    = EARTH
REF_FRAME      = TEME
TIME_SYSTEM    = UTC
MEAN_ELEMENT_THEORY = SGP/SGP4

EPOCH          = 2025-12-20T08:32:31.862112
MEAN_MOTION    = 13.75528920
ECCENTRICITY   = .00293967
INCLINATION    = 82.9297
RA_OF_ASC_NODE = 212.6620
ARG_OF_PERICENTER = 156.9867
MEAN_ANOMALY   = 16.3731

EPHEMERIS_TYPE = 0
CLASSIFICATION_TYPE = U
NORAD_CAT_ID   = 21938
ELEMENT_SET_NO = 999
REV_AT_EPOCH   = 69022
BSTAR          = .11539489E-3
MEAN_MOTION_DOT = .127E-5
MEAN_MOTION_DDOT = 0

CCSDS_OMM_VERS = 2.0
CREATION_DATE  = 
ORIGINATOR     = 

OBJECT_NAME    = USA 81
OBJECT_ID      = 1992-023A
CENTER_NAME    = EARTH
REF_FRAME      = TEME
TIME_SYSTEM    = UTC
MEAN_ELEMENT_THEORY = SGP/SGP4

EPOCH          = 2025-12-20T13:53:34.811232
MEAN_MOTION    = 14.32329508
ECCENTRICITY   = .0001152
INCLINATION    = 85.0079
RA_OF_ASC_NODE = 177.0549
ARG_OF_PERICENTER = 76.9071
MEAN_ANOMALY   = 283.2250

EPHEMERIS_TYPE = 0
CLASSIFICATION_TYPE = U
NORAD_CAT_ID   = 21949
ELEMENT_SET_NO = 999
REV_AT_EPOCH   = 8346
BSTAR          = .45566E-4
MEAN_MOTION_DOT = .143E-5
MEAN_MOTION_DDOT = 0

CCSDS_OMM_VERS = 2.0
CREATION_DATE  = 
ORIGINATOR     = 

OBJECT_NAME    = COSMOS 2221
OBJECT_ID      = 1992-080A
CENTER_NAME    = EARTH
REF_FRAME      = TEME
TIME_SYSTEM    = UTC
MEAN_ELEMENT_THEORY = SGP/SGP4

EPOCH          = 2025-12-20T02:37:49.584288
MEAN_MOTION    = 14.95785829
ECCENTRICITY   = .00162756
INCLINATION    = 82.5038
RA_OF_ASC_NODE = 355.2708
ARG_OF_PERICENTER = 98.9666
MEAN_ANOMALY   = 261.3399

EPHEMERIS_TYPE = 0
CLASSIFICATION_TYPE = U
NORAD_CAT_ID   = 22236
ELEMENT_SET_NO = 999
REV_AT_EPOCH   = 76889
BSTAR          = .12157075E-3
MEAN_MOTION_DOT = .1385E-4
MEAN_MOTION_DDOT = 0

CCSDS_OMM_VERS = 2.0
CREATION_DATE  = 
ORIGINATOR     = 

OBJECT_NAME    = SL-16 R/B
OBJECT_ID      = 1992-093B
CENTER_NAME    = EARTH
REF_FRAME      = TEME
TIME_SYSTEM    = UTC
MEAN_ELEMENT_THEORY = SGP/SGP4

EPOCH          = 2025-12-20T19:12:50.043744
MEAN_MOTION    = 14.15434573
ECCENTRICITY   = .0002363
INCLINATION    = 71.0203
RA_OF_ASC_NODE = 169.8743
ARG_OF_PERICENTER = 44.3745
MEAN_ANOMALY   = 315.7567

EPHEMERIS_TYPE = 0
CLASSIFICATION_TYPE = U
NORAD_CAT_ID   = 22285
ELEMENT_SET_NO = 999
REV_AT_EPOCH   = 70199
BSTAR          = .758E-4
MEAN_MOTION_DOT = .1E-5
MEAN_MOTION_DDOT = 0

CCSDS_OMM_VERS = 2.0
CREATION_DATE  = 
ORIGINATOR     = 

OBJECT_NAME    = COSMOS 2228
OBJECT_ID      = 1992-094A
CENTER_NAME    = EARTH
REF_FRAME      = TEME
TIME_SYSTEM    = UTC
MEAN_ELEMENT_THEORY = SGP/SGP4

EPOCH          = 2025-12-20T20:18:50.313888
MEAN_MOTION    = 14.96762716
ECCENTRICITY   = .0017116
INCLINATION    = 82.5182
RA_OF_ASC_NODE = 312.7774
ARG_OF_PERICENTER = 202.2947
MEAN_ANOMALY   = 157.7533

EPHEMERIS_TYPE = 0
CLASSIFICATION_TYPE = U
NORAD_CAT_ID   = 22286
ELEMENT_SET_NO = 999
REV_AT_EPOCH   = 76426
BSTAR          = .13632E-3
MEAN_MOTION_DOT = .1589E-4
MEAN_MOTION_DDOT = 0

